SL-3 R/B                
1 13403U 82079B   25346.08983942  .00009477  00000+0  39108-3 0  9990
2 13403  81.1467 296.4269 0027130 101.1158 259.3127 15.23574268364351
SL-14 R/B               
1 13553U 82092B   25346.15209330  .00000744  00000+0  81043-4 0  9995
2 13553  82.5685 223.2615 0019113 229.0941 245.7684 14.86554793315924
SL-3 R/B                
1 13819U 83010B   25345.60508144  .00020234  00000+0  44934-3 0  9998
2 13819  81.1037 110.0036 0017258 355.0868   5.0203 15.43406989344340
SL-3 R/B                
1 14208U 83075B   25346.13587986  .00015319  00000+0  43384-3 0  9998
2 14208  97.6109 342.5989 0022692 177.4946 182.6415 15.36115064316704
COSMOS 1536             
1 14699U 84013A   25346.08338608  .00008704  00000+0  37337-3 0  9995
2 14699  82.5453 194.8151 0013429 228.1020 131.9071 15.22506511259287
SL-14 R/B               
1 14820U 84027B   25346.01678522  .00000852  00000+0  94844-4 0  9994
2 14820  82.5412 327.2341 0016373 263.4518  96.4835 14.85873249234612
SL-8 R/B                
1 15483U 85006B   25346.19538406  .00000401  00000+0  14175-3 0  9991
2 15483  74.0467  62.1366 0018680 354.4213  70.2822 14.37720814141453
SL-12 R/B(2)            
1 15772U 85042D   25346.19212994  .00000150  00000+0  89137-4 0  9995
2 15772  71.1086 272.5767 0037627 262.3014 204.7976 14.21951786101951
SL-14 R/B               
1 15945U 85069B   25345.82629500  .00000970  00000+0  10699-3 0  9996
2 15945  82.5266 107.5616 0020097 121.3127 239.0060 14.86323025159780
SL-16 R/B               
1 16182U 85097B   25346.14681161  .00000303  00000+0  17599-3 0  9994
2 16182  71.0033 324.8512 0006620  11.9856  63.5305 14.16583639 74833
SL-14 R/B               
1 16496U 86006B   25346.09417558  .00001004  00000+0  10442-3 0  9993
2 16496  82.5264 342.1586 0076112 201.9728 157.8221 14.86670654136193
COSMOS 1743             
1 16719U 86034A   25345.94525208  .00036916  00000+0  60947-3 0  9992
2 16719  82.5347 165.4171 0004681 257.1039 102.9690 15.52079978166616
