CCSDS_OMM_VERS = 2.0
CREATION_DATE  = 
ORIGINATOR     = 

OBJECT_NAME    = SL-3 R/B
OBJECT_ID      = 1982-079B
CENTER_NAME    = EARTH
REF_FRAME      = TEME
TIME_SYSTEM    = UTC
MEAN_ELEMENT_THEORY = SGP/SGP4

EPOCH          = 2025-12-12T02:09:22.125888
MEAN_MOTION    = 15.23574268
ECCENTRICITY   = .002713
INCLINATION    = 81.1467
RA_OF_ASC_NODE = 296.4269
ARG_OF_PERICENTER = 101.1158
MEAN_ANOMALY   = 259.3127

EPHEMERIS_TYPE = 0
CLASSIFICATION_TYPE = U
NORAD_CAT_ID   = 13403
ELEMENT_SET_NO = 999
REV_AT_EPOCH   = 36435
BSTAR          = .39108E-3
MEAN_MOTION_DOT = .9477E-4
MEAN_MOTION_DDOT = 0

CCSDS_OMM_VERS = 2.0
CREATION_DATE  = 
ORIGINATOR     = 

OBJECT_NAME    = SL-14 R/B
OBJECT_ID      = 1982-092B
CENTER_NAME    = EARTH
REF_FRAME      = TEME
TIME_SYSTEM    = UTC
MEAN_ELEMENT_THEORY = SGP/SGP4

EPOCH          = 2025-12-12T03:39:00.861120
MEAN_MOTION    = 14.86554793
ECCENTRICITY   = .0019113
INCLINATION    = 82.5685
RA_OF_ASC_NODE = 223.2615
ARG_OF_PERICENTER = 229.0941
MEAN_ANOMALY   = 245.7684

EPHEMERIS_TYPE = 0
CLASSIFICATION_TYPE = U
NORAD_CAT_ID   = 13553
ELEMENT_SET_NO = 999
REV_AT_EPOCH   = 31592
BSTAR          = .81043E-4
MEAN_MOTION_DOT = .744E-5
MEAN_MOTION_DDOT = 0

CCSDS_OMM_VERS = 2.0
CREATION_DATE  = 
ORIGINATOR     = 

OBJECT_NAME    = SL-3 R/B
OBJECT_ID      = 1983-010B
CENTER_NAME    = EARTH
REF_FRAME      = TEME
TIME_SYSTEM    = UTC
MEAN_ELEMENT_THEORY = SGP/SGP4

EPOCH          = 2025-12-11T14:31:19.036416
MEAN_MOTION    = 15.43406989
ECCENTRICITY   = .0017258
INCLINATION    = 81.1037
RA_OF_ASC_NODE = 110.0036
ARG_OF_PERICENTER = 355.0868
MEAN_ANOMALY   = 5.0203

EPHEMERIS_TYPE = 0
CLASSIFICATION_TYPE = U
NORAD_CAT_ID   = 13819
ELEMENT_SET_NO = 999
REV_AT_EPOCH   = 34434
BSTAR          = .44933698E-3
MEAN_MOTION_DOT = .20234E-3
MEAN_MOTION_DDOT = 0

CCSDS_OMM_VERS = 2.0
CREATION_DATE  = 
ORIGINATOR     = 

OBJECT_NAME    = SL-3 R/B
OBJECT_ID      = 1983-075B
CENTER_NAME    = EARTH
REF_FRAME      = TEME
TIME_SYSTEM    = UTC
MEAN_ELEMENT_THEORY = SGP/SGP4

EPOCH          = 2025-12-12T03:15:40.019904
MEAN_MOTION    = 15.36115064
ECCENTRICITY   = .0022692
INCLINATION    = 97.6109
RA_OF_ASC_NODE = 342.5989
ARG_OF_PERICENTER = 177.4946
MEAN_ANOMALY   = 182.6415

EPHEMERIS_TYPE = 0
CLASSIFICATION_TYPE = U
NORAD_CAT_ID   = 14208
ELEMENT_SET_NO = 999
REV_AT_EPOCH   = 31670
BSTAR          = .43384E-3
MEAN_MOTION_DOT = .15319E-3
MEAN_MOTION_DDOT = 0

CCSDS_OMM_VERS = 2.0
CREATION_DATE  = 
ORIGINATOR     = 

OBJECT_NAME    = COSMOS 1536
OBJECT_ID      = 1984-013A
CENTER_NAME    = EARTH
REF_FRAME      = TEME
TIME_SYSTEM    = UTC
MEAN_ELEMENT_THEORY = SGP/SGP4

EPOCH          = 2025-12-12T02:00:04.557312
MEAN_MOTION    = 15.22506511
ECCENTRICITY   = .0013429
INCLINATION    = 82.5453
RA_OF_ASC_NODE = 194.8151
ARG_OF_PERICENTER = 228.1020
MEAN_ANOMALY   = 131.9071

EPHEMERIS_TYPE = 0
CLASSIFICATION_TYPE = U
NORAD_CAT_ID   = 14699
ELEMENT_SET_NO = 999
REV_AT_EPOCH   = 25928
BSTAR          = .37337E-3
MEAN_MOTION_DOT = .8704E-4
MEAN_MOTION_DDOT = 0

CCSDS_OMM_VERS = 2.0
CREATION_DATE  = 
ORIGINATOR     = 

OBJECT_NAME    = SL-14 R/B
OBJECT_ID      = 1984-027B
CENTER_NAME    = EARTH
REF_FRAME      = TEME
TIME_SYSTEM    = UTC
MEAN_ELEMENT_THEORY = SGP/SGP4

EPOCH          = 2025-12-12T00:24:10.243008
MEAN_MOTION    = 14.85873249
ECCENTRICITY   = .0016373
INCLINATION    = 82.5412
RA_OF_ASC_NODE = 327.2341
ARG_OF_PERICENTER = 263.4518
MEAN_ANOMALY   = 96.4835

EPHEMERIS_TYPE = 0
CLASSIFICATION_TYPE = U
NORAD_CAT_ID   = 14820
ELEMENT_SET_NO = 999
REV_AT_EPOCH   = 23461
BSTAR          = .94844E-4
MEAN_MOTION_DOT = .852E-5
MEAN_MOTION_DDOT = 0

CCSDS_OMM_VERS = 2.0
CREATION_DATE  = 
ORIGINATOR     = 

OBJECT_NAME    = SL-8 R/B
OBJECT_ID      = 1985-006B
CENTER_NAME    = EARTH
REF_FRAME      = TEME
TIME_SYSTEM    = UTC
MEAN_ELEMENT_THEORY = SGP/SGP4

EPOCH          = 2025-12-12T04:41:21.182784
MEAN_MOTION    = 14.37720814
ECCENTRICITY   = .001868
INCLINATION    = 74.0467
RA_OF_ASC_NODE = 62.1366
ARG_OF_PERICENTER = 354.4213
MEAN_ANOMALY   = 70.2822

EPHEMERIS_TYPE = 0
CLASSIFICATION_TYPE = U
NORAD_CAT_ID   = 15483
ELEMENT_SET_NO = 999
REV_AT_EPOCH   = 14145
BSTAR          = .14175E-3
MEAN_MOTION_DOT = .401E-5
MEAN_MOTION_DDOT = 0

CCSDS_OMM_VERS = 2.0
CREATION_DATE  = 
ORIGINATOR     = 

OBJECT_NAME    = SL-12 R/B(2)
OBJECT_ID      = 1985-042D
CENTER_NAME    = EARTH
REF_FRAME      = TEME
TIME_SYSTEM    = UTC
MEAN_ELEMENT_THEORY = SGP/SGP4

EPOCH          = 2025-12-12T04:36:40.026816
MEAN_MOTION    = 14.21951786
ECCENTRICITY   = .0037627
INCLINATION    = 71.1086
RA_OF_ASC_NODE = 272.5767
ARG_OF_PERICENTER = 262.3014
MEAN_ANOMALY   = 204.7976

EPHEMERIS_TYPE = 0
CLASSIFICATION_TYPE = U
NORAD_CAT_ID   = 15772
ELEMENT_SET_NO = 999
REV_AT_EPOCH   = 10195
BSTAR          = .89137E-4
MEAN_MOTION_DOT = .15E-5
MEAN_MOTION_DDOT = 0

CCSDS_OMM_VERS = 2.0
CREATION_DATE  = 
ORIGINATOR     = 

OBJECT_NAME    = SL-14 R/B
OBJECT_ID      = 1985-069B
CENTER_NAME    = EARTH
REF_FRAME      = TEME
TIME_SYSTEM    = UTC
MEAN_ELEMENT_THEORY = SGP/SGP4

EPOCH          = 2025-12-11T19:49:51.888000
MEAN_MOTION    = 14.86323025
ECCENTRICITY   = .00200976
INCLINATION    = 82.5266
RA_OF_ASC_NODE = 107.5616
ARG_OF_PERICENTER = 121.3127
MEAN_ANOMALY   = 239.0060

EPHEMERIS_TYPE = 0
CLASSIFICATION_TYPE = U
NORAD_CAT_ID   = 15945
ELEMENT_SET_NO = 999
REV_AT_EPOCH   = 15978
BSTAR          = .10698844E-3
MEAN_MOTION_DOT = .97E-5
MEAN_MOTION_DDOT = 0

CCSDS_OMM_VERS = 2.0
CREATION_DATE  = 
ORIGINATOR     = 

OBJECT_NAME    = SL-16 R/B
OBJECT_ID      = 1985-097B
CENTER_NAME    = EARTH
REF_FRAME      = TEME
TIME_SYSTEM    = UTC
MEAN_ELEMENT_THEORY = SGP/SGP4

EPOCH          = 2025-12-12T03:31:24.523104
MEAN_MOTION    = 14.16583639
ECCENTRICITY   = .000662
INCLINATION    = 71.0033
RA_OF_ASC_NODE = 324.8512
ARG_OF_PERICENTER = 11.9856
MEAN_ANOMALY   = 63.5305

EPHEMERIS_TYPE = 0
CLASSIFICATION_TYPE = U
NORAD_CAT_ID   = 16182
ELEMENT_SET_NO = 999
REV_AT_EPOCH   = 7483
BSTAR          = .17599E-3
MEAN_MOTION_DOT = .303E-5
MEAN_MOTION_DDOT = 0

CCSDS_OMM_VERS = 2.0
CREATION_DATE  = 
ORIGINATOR     = 

OBJECT_NAME    = SL-14 R/B
OBJECT_ID      = 1986-006B
CENTER_NAME    = EARTH
REF_FRAME      = TEME
TIME_SYSTEM    = UTC
MEAN_ELEMENT_THEORY = SGP/SGP4

EPOCH          = 2025-12-12T02:15:36.770112
MEAN_MOTION    = 14.86670654
ECCENTRICITY   = .0076112
INCLINATION    = 82.5264
RA_OF_ASC_NODE = 342.1586
ARG_OF_PERICENTER = 201.9728
MEAN_ANOMALY   = 157.8221

EPHEMERIS_TYPE = 0
CLASSIFICATION_TYPE = U
NORAD_CAT_ID   = 16496
ELEMENT_SET_NO = 999
REV_AT_EPOCH   = 13619
BSTAR          = .10442E-3
MEAN_MOTION_DOT = .1004E-4
MEAN_MOTION_DDOT = 0

CCSDS_OMM_VERS = 2.0
CREATION_DATE  = 
ORIGINATOR     = 

OBJECT_NAME    = COSMOS 1743
OBJECT_ID      = 1986-034A
CENTER_NAME    = EARTH
REF_FRAME      = TEME
TIME_SYSTEM    = UTC
MEAN_ELEMENT_THEORY = SGP/SGP4

EPOCH          = 2025-12-11T22:41:09.779712
MEAN_MOTION    = 15.52079978
ECCENTRICITY   = .0004681
INCLINATION    = 82.5347
RA_OF_ASC_NODE = 165.4171
ARG_OF_PERICENTER = 257.1039
MEAN_ANOMALY   = 102.9690

EPHEMERIS_TYPE = 0
CLASSIFICATION_TYPE = U
NORAD_CAT_ID   = 16719
ELEMENT_SET_NO = 999
REV_AT_EPOCH   = 16661
BSTAR          = .60947E-3
MEAN_MOTION_DOT = .36916E-3
MEAN_MOTION_DDOT = 0

